{"type": "FeatureCollection", "features": [ {"type": "Feature", "properties": {"norad_id": 66929, "name": "STARLINK-36169", "group": "last-30-days", "lat": 26.85344123975754, "lon": 6.964559079003065, "alt_km": 390.35900644205776, "timestamp": "2025-12-25T22:42:15.710482+00:00", "meta": {"OBJECT_NAME": "STARLINK-36169", "OBJECT_ID": "2025-286E", "EPOCH": "2025-12-25T18:00:02.000160", "MEAN_MOTION": 15.58714781, "ECCENTRICITY": 0.0001067, "INCLINATION": 53.1593, "RA_OF_ASC_NODE": 345.6057, "ARG_OF_PERICENTER": 95.9595, "MEAN_ANOMALY": 278.3965, "EPHEMERIS_TYPE": 0, "CLASSIFICATION_TYPE": "U", "NORAD_CAT_ID": 66929, "ELEMENT_SET_NO": 999, "REV_AT_EPOCH": 408, "BSTAR": -0.028697, "MEAN_MOTION_DOT": -0.01977225, "MEAN_MOTION_DDOT": 0}, "tle": {"line1": "1 66929U 25286E   25359.75002315 -.01977225  00000+0 -28697-1 0  9999", "line2": "2 66929  53.1593 345.6057 0001067  95.9595 278.3965 15.58714781  4085"}}, "geometry": {"type": "Point", "coordinates": [6.964559079003065, 26.85344123975754]}}, {"type": "Feature", "properties": {"norad_id": 66930, "name": "STARLINK-36206", "group": "last-30-days", "lat": 28.26704099108418, "lon": 8.42560402240056, "alt_km": 390.19519166738246, "timestamp": "2025-12-25T22:42:15.710491+00:00", "meta": {"OBJECT_NAME": "STARLINK-36206", "OBJECT_ID": "2025-286F", "EPOCH": "2025-12-25T18:00:02.000160", "MEAN_MOTION": 15.58706178, "ECCENTRICITY": 9.62e-05, "INCLINATION": 53.1596, "RA_OF_ASC_NODE": 345.6014, "ARG_OF_PERICENTER": 96.3426, "MEAN_ANOMALY": 279.9333, "EPHEMERIS_TYPE": 0, "CLASSIFICATION_TYPE": "U", "NORAD_CAT_ID": 66930, "ELEMENT_SET_NO": 999, "REV_AT_EPOCH": 408, "BSTAR": -0.028415, "MEAN_MOTION_DOT": -0.01959551, "MEAN_MOTION_DDOT": 0}, "tle": {"line1": "1 66930U 25286F   25359.75002315 -.01959551  00000+0 -28415-1 0  9991", "line2": "2 66930  53.1596 345.6014 0000962  96.3426 279.9333 15.58706178  4081"}}, "geometry": {"type": "Point", "coordinates": [8.42560402240056, 28.26704099108418]}}, {"type": "Feature", "properties": {"norad_id": 66931, "name": "STARLINK-36130", "group": "last-30-days", "lat": 29.664230049522047, "lon": 9.926678541437004, "alt_km": 389.96686390818104, "timestamp": "2025-12-25T22:42:15.710501+00:00", "meta": {"OBJECT_NAME": "STARLINK-36130", "OBJECT_ID": "2025-286G", "EPOCH": "2025-12-25T18:00:02.000160", "MEAN_MOTION": 15.58708675, "ECCENTRICITY": 9.91e-05, "INCLINATION": 53.1594, "RA_OF_ASC_NODE": 345.5979, "ARG_OF_PERICENTER": 98.931, "MEAN_ANOMALY": 279.2619, "EPHEMERIS_TYPE": 0, "CLASSIFICATION_TYPE": "U", "NORAD_CAT_ID": 66931, "ELEMENT_SET_NO": 999, "REV_AT_EPOCH": 408, "BSTAR": -0.028504, "MEAN_MOTION_DOT": -0.01965107, "MEAN_MOTION_DDOT": 0}, "tle": {"line1": "1 66931U 25286G   25359.75002315 -.01965107  00000+0 -28504-1 0  9995", "line2": "2 66931  53.1594 345.5979 0000991  98.9310 279.2619 15.58708675  4085"}}, "geometry": {"type": "Point", "coordinates": [9.926678541437004, 29.664230049522047]}}, {"type": "Feature", "properties": {"norad_id": 66932, "name": "STARLINK-36177", "group": "last-30-days", "lat": 31.04310648722282, "lon": 11.467621028739327, "alt_km": 389.71562518319206, "timestamp": "2025-12-25T22:42:15.710513+00:00", "meta": {"OBJECT_NAME": "STARLINK-36177", "OBJECT_ID": "2025-286H", "EPOCH": "2025-12-25T18:00:02.000160", "MEAN_MOTION": 15.58705392, "ECCENTRICITY": 9.4e-05, "INCLINATION": 53.1593, "RA_OF_ASC_NODE": 345.5932, "ARG_OF_PERICENTER": 96.8116, "MEAN_ANOMALY": 283.2974, "EPHEMERIS_TYPE": 0, "CLASSIFICATION_TYPE": "U", "NORAD_CAT_ID": 66932, "ELEMENT_SET_NO": 999, "REV_AT_EPOCH": 408, "BSTAR": -0.02837, "MEAN_MOTION_DOT": -0.01956756, "MEAN_MOTION_DDOT": 0}, "tle": {"line1": "1 66932U 25286H   25359.75002315 -.01956756  00000+0 -28370-1 0  9997", "line2": "2 66932  53.1593 345.5932 0000940  96.8116 283.2974 15.58705392  4081"}}, "geometry": {"type": "Point", "coordinates": [11.467621028739327, 31.04310648722282]}}, {"type": "Feature", "properties": {"norad_id": 66933, "name": "STARLINK-36157", "group": "last-30-days", "lat": 32.40359140294174, "lon": 13.055482891810675, "alt_km": 389.51682421632177, "timestamp": "2025-12-25T22:42:15.710523+00:00", "meta": {"OBJECT_NAME": "STARLINK-36157", "OBJECT_ID": "2025-286J", "EPOCH": "2025-12-25T18:00:02.000160", "MEAN_MOTION": 15.58705779, "ECCENTRICITY": 9.26e-05, "INCLINATION": 53.1591, "RA_OF_ASC_NODE": 345.5895, "ARG_OF_PERICENTER": 100.3034, "MEAN_ANOMALY": 281.7224, "EPHEMERIS_TYPE": 0, "CLASSIFICATION_TYPE": "U", "NORAD_CAT_ID": 66933, "ELEMENT_SET_NO": 999, "REV_AT_EPOCH": 408, "BSTAR": -0.028381, "MEAN_MOTION_DOT": -0.01957424, "MEAN_MOTION_DDOT": 0}, "tle": {"line1": "1 66933U 25286J   25359.75002315 -.01957424  00000+0 -28381-1 0  9993", "line2": "2 66933  53.1591 345.5895 0000926 100.3034 281.7224 15.58705779  4082"}}, "geometry": {"type": "Point", "coordinates": [13.055482891810675, 32.40359140294174]}}, {"type": "Feature", "properties": {"norad_id": 66934, "name": "STARLINK-36153", "group": "last-30-days", "lat": 33.74342304476759, "lon": 14.690967562453972, "alt_km": 389.1204159910949, "timestamp": "2025-12-25T22:42:15.710533+00:00", "meta": {"OBJECT_NAME": "STARLINK-36153", "OBJECT_ID": "2025-286K", "EPOCH": "2025-12-25T18:00:02.000160", "MEAN_MOTION": 15.58711007, "ECCENTRICITY": 0.0001029, "INCLINATION": 53.1593, "RA_OF_ASC_NODE": 345.5856, "ARG_OF_PERICENTER": 92.3347, "MEAN_ANOMALY": 291.6051, "EPHEMERIS_TYPE": 0, "CLASSIFICATION_TYPE": "U", "NORAD_CAT_ID": 66934, "ELEMENT_SET_NO": 999, "REV_AT_EPOCH": 408, "BSTAR": -0.028536, "MEAN_MOTION_DOT": -0.01967206, "MEAN_MOTION_DDOT": 0}, "tle": {"line1": "1 66934U 25286K   25359.75002315 -.01967206  00000+0 -28536-1 0  9995", "line2": "2 66934  53.1593 345.5856 0001029  92.3347 291.6051 15.58711007  4083"}}, "geometry": {"type": "Point", "coordinates": [14.690967562453972, 33.74342304476759]}}, {"type": "Feature", "properties": {"norad_id": 66935, "name": "STARLINK-36127", "group": "last-30-days", "lat": 35.062150790774275, "lon": 16.379354304225096, "alt_km": 388.96896986128286, "timestamp": "2025-12-25T22:42:15.710543+00:00", "meta": {"OBJECT_NAME": "STARLINK-36127", "OBJECT_ID": "2025-286L", "EPOCH": "2025-12-25T18:00:02.000160", "MEAN_MOTION": 15.58705381, "ECCENTRICITY": 9.26e-05, "INCLINATION": 53.1592, "RA_OF_ASC_NODE": 345.581, "ARG_OF_PERICENTER": 91.7046, "MEAN_ANOMALY": 294.1551, "EPHEMERIS_TYPE": 0, "CLASSIFICATION_TYPE": "U", "NORAD_CAT_ID": 66935, "ELEMENT_SET_NO": 999, "REV_AT_EPOCH": 408, "BSTAR": -0.028372, "MEAN_MOTION_DOT": -0.01956889, "MEAN_MOTION_DDOT": 0}, "tle": {"line1": "1 66935U 25286L   25359.75002315 -.01956889  00000+0 -28372-1 0  9999", "line2": "2 66935  53.1592 345.5810 0000926  91.7046 294.1551 15.58705381  4088"}}, "geometry": {"type": "Point", "coordinates": [16.379354304225096, 35.062150790774275]}}, {"type": "Feature", "properties": {"norad_id": 66936, "name": "STARLINK-36160", "group": "last-30-days", "lat": 36.35527782691113, "lon": 18.122030272998778, "alt_km": 388.7756996701801, "timestamp": "2025-12-25T22:42:15.710554+00:00", "meta": {"OBJECT_NAME": "STARLINK-36160", "OBJECT_ID": "2025-286M", "EPOCH": "2025-12-25T18:00:02.000160", "MEAN_MOTION": 15.58704997, "ECCENTRICITY": 9.39e-05, "INCLINATION": 53.1593, "RA_OF_ASC_NODE": 345.5777, "ARG_OF_PERICENTER": 95.6998, "MEAN_ANOMALY": 292.0768, "EPHEMERIS_TYPE": 0, "CLASSIFICATION_TYPE": "U", "NORAD_CAT_ID": 66936, "ELEMENT_SET_NO": 999, "REV_AT_EPOCH": 408, "BSTAR": -0.028362, "MEAN_MOTION_DOT": -0.01956214, "MEAN_MOTION_DDOT": 0}, "tle": {"line1": "1 66936U 25286M   25359.75002315 -.01956214  00000+0 -28362-1 0  9991", "line2": "2 66936  53.1593 345.5777 0000939  95.6998 292.0768 15.58704997  4084"}}, "geometry": {"type": "Point", "coordinates": [18.122030272998778, 36.35527782691113]}}, {"type": "Feature", "properties": {"norad_id": 66937, "name": "STARLINK-36165", "group": "last-30-days", "lat": 37.62223900941147, "lon": 19.92220321652813, "alt_km": 388.6165902103385, "timestamp": "2025-12-25T22:42:15.710570+00:00", "meta": {"OBJECT_NAME": "STARLINK-36165", "OBJECT_ID": "2025-286N", "EPOCH": "2025-12-25T18:00:02.000160", "MEAN_MOTION": 15.5870612, "ECCENTRICITY": 9.28e-05, "INCLINATION": 53.1594, "RA_OF_ASC_NODE": 345.5734, "ARG_OF_PERICENTER": 101.7915, "MEAN_ANOMALY": 287.9012, "EPHEMERIS_TYPE": 0, "CLASSIFICATION_TYPE": "U", "NORAD_CAT_ID": 66937, "ELEMENT_SET_NO": 999, "REV_AT_EPOCH": 408, "BSTAR": -0.028367, "MEAN_MOTION_DOT": -0.01956637, "MEAN_MOTION_DDOT": 0}, "tle": {"line1": "1 66937U 25286N   25359.75002315 -.01956637  00000+0 -28367-1 0  9996", "line2": "2 66937  53.1594 345.5734 0000928 101.7915 287.9012 15.58706120  4080"}}, "geometry": {"type": "Point", "coordinates": [19.92220321652813, 37.62223900941147]}}, {"type": "Feature", "properties": {"norad_id": 66938, "name": "STARLINK-36155", "group": "last-30-days", "lat": 38.862722198711765, "lon": 21.787000098937316, "alt_km": 388.3504075315832, "timestamp": "2025-12-25T22:42:15.710580+00:00", "meta": {"OBJECT_NAME": "STARLINK-36155", "OBJECT_ID": "2025-286P", "EPOCH": "2025-12-25T18:00:02.000160", "MEAN_MOTION": 15.58707192, "ECCENTRICITY": 8.59e-05, "INCLINATION": 53.1594, "RA_OF_ASC_NODE": 345.5687, "ARG_OF_PERICENTER": 91.758, "MEAN_ANOMALY": 299.8519, "EPHEMERIS_TYPE": 0, "CLASSIFICATION_TYPE": "U", "NORAD_CAT_ID": 66938, "ELEMENT_SET_NO": 999, "REV_AT_EPOCH": 408, "BSTAR": -0.028414, "MEAN_MOTION_DOT": -0.01959457, "MEAN_MOTION_DDOT": 0}, "tle": {"line1": "1 66938U 25286P   25359.75002315 -.01959457  00000+0 -28414-1 0  9993", "line2": "2 66938  53.1594 345.5687 0000859  91.7580 299.8519 15.58707192  4081"}}, "geometry": {"type": "Point", "coordinates": [21.787000098937316, 38.862722198711765]}}]}